LYNK TOWER 4            
1 55034U 23001AB  26068.67743801  .00009160  00000+0  30014-3 0  9997
2 55034  97.3324 128.5940 0010321 112.3386 247.8950 15.31819885176588
STARLINK-32582          
1 62033U 24216B   26068.68314801  .00031241  00000+0  11402-2 0  9992
2 62033  42.9967 263.3647 0001604 250.8388 109.2290 15.27572071 73795
